[{"OBJECT_NAME":"PRAETORIAN SDA_604","OBJECT_ID":"2025-203C","EPOCH":"2026-03-09T19:32:57.437088","MEAN_MOTION":13.8303423,"ECCENTRICITY":0.00068053,"INCLINATION":81.3021,"RA_OF_ASC_NODE":102.9284,"ARG_OF_PERICENTER":107.8605,"MEAN_ANOMALY":252.3294,"EPHEMERIS_TYPE":0,"CLASSIFICATION_TYPE":"U","NORAD_CAT_ID":65567,"ELEMENT_SET_NO":999,"REV_AT_EPOCH":2494,"BSTAR":4.0384414e-5,"MEAN_MOTION_DOT":5.6e-7,"MEAN_MOTION_DDOT":0},{"OBJECT_NAME":"CZ-4B DEB","OBJECT_ID":"1999-057SA","EPOCH":"2026-03-05T21:48:51.691104","MEAN_MOTION":14.14497369,"ECCENTRICITY":0.01965551,"INCLINATION":99.097,"RA_OF_ASC_NODE":111.5919,"ARG_OF_PERICENTER":24.7672,"MEAN_ANOMALY":336.2782,"EPHEMERIS_TYPE":0,"CLASSIFICATION_TYPE":"U","NORAD_CAT_ID":35322,"ELEMENT_SET_NO":999,"REV_AT_EPOCH":65657,"BSTAR":0.00025938189,"MEAN_MOTION_DOT":5.52e-6,"MEAN_MOTION_DDOT":0}]
